[{"OBJECT_NAME":"STARLINK-5905","OBJECT_ID":"2023-042A","EPOCH":"2026-03-09T22:31:17.200128","MEAN_MOTION":15.02535341,"ECCENTRICITY":0.00013511,"INCLINATION":43.0043,"RA_OF_ASC_NODE":55.1176,"ARG_OF_PERICENTER":275.5762,"MEAN_ANOMALY":84.4926,"EPHEMERIS_TYPE":0,"CLASSIFICATION_TYPE":"U","NORAD_CAT_ID":55986,"ELEMENT_SET_NO":999,"REV_AT_EPOCH":16376,"BSTAR":2.0543944e-5,"MEAN_MOTION_DOT":7.4e-7,"MEAN_MOTION_DDOT":0},{"OBJECT_NAME":"ICEYE-X37","OBJECT_ID":"2024-043E","EPOCH":"2026-03-09T21:28:27.980256","MEAN_MOTION":15.05207146,"ECCENTRICITY":0.00148076,"INCLINATION":97.8149,"RA_OF_ASC_NODE":204.4924,"ARG_OF_PERICENTER":351.2295,"MEAN_ANOMALY":8.867,"EPHEMERIS_TYPE":0,"CLASSIFICATION_TYPE":"U","NORAD_CAT_ID":59102,"ELEMENT_SET_NO":999,"REV_AT_EPOCH":11014,"BSTAR":0.00044484532,"MEAN_MOTION_DOT":6.299e-5,"MEAN_MOTION_DDOT":0}]
